IRIDIUM 155             
1 43573U 18061E   23348.32952418  .00000326  00000+0  10943-3 0  9992
2 43573  86.3967  79.4562 0002308  98.2956 261.8501 14.34217559282082
IRIDIUM 154             
1 43574U 18061F   23348.31050572  .00000318  00000+0  10639-3 0  9995
2 43574  86.3971  79.5531 0001860 100.5081 259.6324 14.34216903282139
IRIDIUM 163             
1 43575U 18061G   23348.36122952  .00000294  00000+0  97752-4 0  9998
2 43575  86.3968  79.4757 0002046  99.3372 260.8055 14.34219120282117
IRIDIUM 156             
1 43576U 18061H   23348.33586129  .00000360  00000+0  12151-3 0  9999
2 43576  86.3969  79.4924 0002231  91.0841 269.0610 14.34218772282100
IRIDIUM 164             
1 43577U 18061J   23348.31683105  .00000330  00000+0  11074-3 0  9990
2 43577  86.3969  79.5260 0002012  88.3606 271.7821 14.34216999282147
IRIDIUM 159             
1 43578U 18061K   23348.35489166  .00000326  00000+0  10938-3 0  9999
2 43578  86.3967  79.4664 0001952  97.1238 263.0179 14.34220063282118
IRIDIUM 180             
1 43922U 19002A   23348.56368979  .00000263  00000+0  86887-4 0  9996
2 43922  86.3975  16.2533 0001971  93.3609 266.7813 14.34218358257756
IRIDIUM 176             
1 43923U 19002B   23348.56600648  .00000843  00000+0  12986-3 0  9991
2 43923  86.6104  16.2838 0002371  92.9583 267.1906 14.72244488264530
IRIDIUM 168             
1 43924U 19002C   23348.55735100  .00000261  00000+0  86276-4 0  9991
2 43924  86.3977  16.3075 0002069  94.4338 265.7094 14.34219637257731
IRIDIUM 173             
1 43925U 19002D   23348.54466248  .00000273  00000+0  90557-4 0  9995
2 43925  86.3974  16.2391 0002184  98.3787 261.7656 14.34218430257716
IRIDIUM 169             
1 43926U 19002E   23348.55052430  .00000339  00000+0  10427-3 0  9991
2 43926  86.4233  47.8429 0004861 110.0047 250.1675 14.38597446258583
IRIDIUM 172             
1 43927U 19002F   23348.53832657  .00000266  00000+0  87803-4 0  9999
2 43927  86.3974  16.2470 0002098  92.9785 267.1651 14.34217911257727
IRIDIUM 175             
1 43928U 19002G   23348.56005965  .00000904  00000+0  13940-3 0  9996
2 43928  86.1509 359.9288 0002450  91.8934 268.2564 14.72235053264520
IRIDIUM 171             
1 43929U 19002H   23348.51929085  .00000259  00000+0  85363-4 0  9992
2 43929  86.3985  16.4599 0002109  90.5948 269.5489 14.34220336257712
IRIDIUM 170             
1 43930U 19002J   23348.57224733  .00000841  00000+0  12942-3 0  9997
2 43930  86.6103  16.2859 0002540  91.2317 268.9191 14.72243119264541
IRIDIUM 167             
1 43931U 19002K   23348.58271801  .00000167  00000+0  52496-4 0  9997
2 43931  86.3976  16.2427 0002092  88.4941 271.6495 14.34217365257723
IRIDIUM 181             
1 56726U 23068S   23348.26936328  .00000400  00000+0  11229-3 0  9995
2 56726  86.8635  61.0793 0002566  75.2257 284.9229 14.43573989 30313
IRIDIUM 177             
1 56727U 23068T   23348.59107882  .00001169  00000+0  15033-3 0  9997
2 56727  86.1982  43.4660 0002268  95.4274 264.7206 14.80232354 30928
IRIDIUM 174             
1 56728U 23068U   23348.58570313  .00001185  00000+0  15256-3 0  9995
2 56728  86.1990  43.5573 0002061  94.6451 265.5005 14.80212161 30921
IRIDIUM 178             
1 56729U 23068V   23348.58032867  .00001198  00000+0  15421-3 0  9991
2 56729  86.5788  52.2251 0002247  97.7703 262.3774 14.80221845 30928
IRIDIUM 179             
1 56730U 23068W   23348.57488289  .00001204  00000+0  15511-3 0  9993
2 56730  86.6797  54.0236 0002201  99.2845 260.8626 14.80219117 30926
